{"type": "FeatureCollection", "features": [{"type": "Feature", "properties": {"filename": "frame_000074.jpg", "camera": "v2   1920 1080 brown 0.85", "focal": 0.8498447635135294, "width": 1920, "height": 1080, "capture_time": 0.0, "translation": [0.49892309328891304, -0.23915686937822084, -3.098272867110032], "rotation": [-0.37441656086584757, -3.0555610790644923, -0.005000190423043378]}, "geometry": {"type": "Point", "coordinates": [-7.488290179998415, -0.00022472408467967108, -3.098272867110032]}}, {"type": "Feature", "properties": {"filename": "frame_000064.jpg", "camera": "v2   1920 1080 brown 0.85", "focal": 0.8498447635135294, "width": 1920, "height": 1080, "capture_time": 0.0, "translation": [0.5657443180748647, -0.2521858926789912, -3.212263291224408], "rotation": [0.3881336439738686, 3.117073803150085, -0.0005985750316770586]}, "geometry": {"type": "Point", "coordinates": [-7.48823031484906, -0.00023647547731809004, -3.212263291224408]}}, {"type": "Feature", "properties": {"filename": "frame_000070.jpg", "camera": "v2   1920 1080 brown 0.85", "focal": 0.8498447635135294, "width": 1920, "height": 1080, "capture_time": 0.0, "translation": [0.5083227317617202, -0.24279020861865827, -3.163180383068749], "rotation": [-0.3853911131786131, -3.0974949577176942, -0.004892541547492542]}, "geometry": {"type": "Point", "coordinates": [-7.488281758861116, -0.00022800113458408972, -3.163180383068749]}}, {"type": "Feature", "properties": {"filename": "frame_000063.jpg", "camera": "v2   1920 1080 brown 0.85", "focal": 0.8498447635135294, "width": 1920, "height": 1080, "capture_time": 0.0, "translation": [0.5752285268634763, -0.2563034967451367, -3.216516780529448], "rotation": [-0.3883629921849264, -3.114523578057117, -0.00045412247768444495]}, "geometry": {"type": "Point", "coordinates": [-7.488221817944691, -0.00024018930461457827, -3.216516780529448]}}, {"type": "Feature", "properties": {"filename": "frame_000062.jpg", "camera": "v2   1920 1080 brown 0.85", "focal": 0.8498447635135294, "width": 1920, "height": 1080, "capture_time": 0.0, "translation": [0.5918614194304833, -0.26073805481176227, -3.2215726288473028], "rotation": [-0.3942557814810761, -3.1111859112583318, -0.00045608276911903963]}, "geometry": {"type": "Point", "coordinates": [-7.488206916532196, -0.00024418900708885686, -3.2215726288473028]}}, {"type": "Feature", "properties": {"filename": "frame_000072.jpg", "camera": "v2   1920 1080 brown 0.85", "focal": 0.8498447635135294, "width": 1920, "height": 1080, "capture_time": 0.0, "translation": [0.49878132010003223, -0.23385448125453132, -3.1290559756216982], "rotation": [-0.38451609569644213, -3.066814669578723, 0.0021920148104764225]}, "geometry": {"type": "Point", "coordinates": [-7.4882903070115985, -0.00021994165853068924, -3.1290559756216982]}}, {"type": "Feature", "properties": {"filename": "frame_000065.jpg", "camera": "v2   1920 1080 brown 0.85", "focal": 0.8498447635135294, "width": 1920, "height": 1080, "capture_time": 0.0, "translation": [0.5600475846523216, -0.25049340708934054, -3.206247790476129], "rotation": [0.3880091429984224, 3.1171480301645973, 2.704345177374551e-05]}, "geometry": {"type": "Point", "coordinates": [-7.488235418553752, -0.00023494895822428569, -3.206247790476129]}}, {"type": "Feature", "properties": {"filename": "frame_000067.jpg", "camera": "v2   1920 1080 brown 0.85", "focal": 0.8498447635135294, "width": 1920, "height": 1080, "capture_time": 0.0, "translation": [0.5260829917699918, -0.24405744607698962, -3.1972383778810283], "rotation": [-0.38168515565530764, -3.1177099726934476, -0.0022690168909654854]}, "geometry": {"type": "Point", "coordinates": [-7.488265847440108, -0.00022914410942925074, -3.1972383778810283]}}, {"type": "Feature", "properties": {"filename": "frame_000071.jpg", "camera": "v2   1920 1080 brown 0.85", "focal": 0.8498447635135294, "width": 1920, "height": 1080, "capture_time": 0.0, "translation": [0.5050374875225524, -0.24146144161347702, -3.146552606421953], "rotation": [-0.38244354134338804, -3.0823381349965144, -0.004907837398906841]}, "geometry": {"type": "Point", "coordinates": [-7.488284702111839, -0.0002268026680011164, -3.146552606421953]}}, {"type": "Feature", "properties": {"filename": "frame_000068.jpg", "camera": "v2   1920 1080 brown 0.85", "focal": 0.8498447635135294, "width": 1920, "height": 1080, "capture_time": 0.0, "translation": [0.5211231176705176, -0.24195178398004416, -3.1895110460684504], "rotation": [-0.3852317566103521, -3.1177460975613696, -0.00105599970321454]}, "geometry": {"type": "Point", "coordinates": [-7.488270290991994, -0.0002272449310061801, -3.1895110460684504]}}, {"type": "Feature", "properties": {"filename": "frame_000073.jpg", "camera": "v2   1920 1080 brown 0.85", "focal": 0.8498447635135294, "width": 1920, "height": 1080, "capture_time": 0.0, "translation": [0.49309654328248015, -0.23325995242774455, -3.109167266849445], "rotation": [-0.3818025724005227, -3.055380027214046, 0.0009973930755892097]}, "geometry": {"type": "Point", "coordinates": [-7.488295400004272, -0.000219405428762088, -3.109167266849445]}}, {"type": "Feature", "properties": {"filename": "frame_000066.jpg", "camera": "v2   1920 1080 brown 0.85", "focal": 0.8498447635135294, "width": 1920, "height": 1080, "capture_time": 0.0, "translation": [0.5426256297478227, -0.24501246991012154, -3.2012917789910693], "rotation": [0.3804189083825433, 3.1183085142650504, -0.0003591872025780453]}, "geometry": {"type": "Point", "coordinates": [-7.488251026886581, -0.00023000548658477942, -3.2012917789910693]}}, {"type": "Feature", "properties": {"filename": "frame_000069.jpg", "camera": "v2   1920 1080 brown 0.85", "focal": 0.8498447635135294, "width": 1920, "height": 1080, "capture_time": 0.0, "translation": [0.5133745697305672, -0.2420652369462839, -3.180326994485068], "rotation": [-0.38270051855202825, -3.1096787583286987, -0.002372633784970219]}, "geometry": {"type": "Point", "coordinates": [-7.488277232918057, -0.0002273472563900967, -3.180326994485068]}}, {"type": "Feature", "properties": {"filename": "frame_000061.jpg", "camera": "v2   1920 1080 brown 0.85", "focal": 0.8498447635135294, "width": 1920, "height": 1080, "capture_time": 0.0, "translation": [0.5959309537996546, -0.2619096595874843, -3.229879047949616], "rotation": [0.3966397384243706, 3.1161863517914052, -0.0012067744452651174]}, "geometry": {"type": "Point", "coordinates": [-7.488203270635347, -0.00024524572348203654, -3.229879047949616]}}]}